*******************************************************************************
 Revised: July 31, 2013                  Sun                                 10

 PHYSICAL PROPERTIES (updated 2018-Aug-15):
  GM, km^3/s^2          = 132712440041.93938  Mass, 10^24 kg        = ~1988500
  Vol. mean radius, km  = 695700              Volume, 10^12 km^3    = 1412000
  Solar radius (IAU)    = 696000 km           Mean density, g/cm^3  = 1.408
  Radius (photosphere)  = 696500 km           Angular diam at 1 AU  = 1919.3"
  Photosphere temp., K  = 6600 (bottom)       Photosphere temp., K  = 4400(top)
  Photospheric depth    = ~500 km             Chromospheric depth   = ~2500 km
  Flatness, f           = 0.00005             Adopted sid. rot. per.= 25.38 d
  Surface gravity       =  274.0 m/s^2        Escape speed, km/s    =  617.7
  Pole (RA,DEC), deg.   = (286.13, 63.87)     Obliquity to ecliptic = 7.25 deg.
  Solar constant (1 AU) = 1367.6 W/m^2        Luminosity, 10^24 J/s = 382.8
  Mass-energy conv rate = 4.260 x 10^9 kg/s   Effective temp, K     = 5772
  Sunspot cycle         = 11.4 yr             Cycle 24 sunspot min. = 2008 A.D.

  Motion relative to nearby stars = apex : R.A.= 271 deg.; DEC.= +30 deg.
                                    speed: 19.4 km/s (0.0112 au/day)
  Motion relative to 2.73K BB/CBR = apex : l= 264.7 +- 0.8; b= 48.2 +- 0.5 deg.
                                    speed: 369 +-11 km/s
*******************************************************************************


*******************************************************************************
Ephemeris / WWW_USER Sat Jan 28 00:13:08 2023 Pasadena, USA      / Horizons    
*******************************************************************************
Target body name: Sun (10)                        {source: DE441}
Center body name: Earth (399)                     {source: DE441}
Center-site name: (user defined site below)
*******************************************************************************
Start time      : A.D. 2000-Jan-01 00:00:00.0000 UT      
Stop  time      : A.D. 2099-Dec-31 00:00:00.0000 UT      
Step-size       : 1440 minutes
*******************************************************************************
Target pole/equ : IAU_SUN                         {East-longitude positive}
Target radii    : 696000.0 x 696000.0 x 696000.0 k{Equator, meridian, pole}    
Center geodetic : 6.95000000,50.9333000,-1.00E-12 {E-lon(deg),Lat(deg),Alt(km)}
Center cylindric: 6.95000000,4027.79453,4928.8716 {E-lon(deg),Dxy(km),Dz(km)}
Center pole/equ : ITRF93                          {East-longitude positive}
Center radii    : 6378.1 x 6378.1 x 6356.8 km     {Equator, meridian, pole}    
Target primary  : Sun (R_eq= 696000.000) km
Vis. interferer : MOON (R_eq= 1737.400) km        {source: DE441}
Rel. light bend : Sun                             {source: DE441}
Rel. lght bnd GM: 1.3271E+11 km^3/s^2                                          
Atmos refraction: NO (AIRLESS)
RA format       : DEG
Time format     : BOTH
EOP file        : eop.230126.p230421                                           
EOP coverage    : DATA-BASED 1962-JAN-20 TO 2023-JAN-26. PREDICTS-> 2023-APR-20
Units conversion: 1 au= 149597870.700 km, c= 299792.458 km/s, 1 day= 86400.0 s 
Table cut-offs 1: Elevation (-90.0deg=NO ),Airmass (>38.000=NO), Daylight (NO )
Table cut-offs 2: Solar elongation (  0.0,180.0=NO ),Local Hour Angle( 0.0=NO )
Table cut-offs 3: RA/DEC angular rate (     0.0=NO )                           
*******************************************************************************
 Date__(UT)__HR:MN Date_________JDUT     R.A._(a-appar)_DEC.  L_Ap_Hour_Ang
***************************************************************************
$$SOE
 2047-Oct-27 00:00 2469010.500000000     211.26561 -12.67920  -11.268448181
 2047-Oct-28 00:00 2469011.500000000  m  212.22832 -13.01645  -11.266920009
 2047-Oct-29 00:00 2469012.500000000  m  213.19408 -13.35031  -11.265596029
 2047-Oct-30 00:00 2469013.500000000  m  214.16296 -13.68065  -11.264480114
 2047-Oct-31 00:00 2469014.500000000  m  215.13502 -14.00739  -11.263576070
 2047-Nov-01 00:00 2469015.500000000  m  216.11031 -14.33040  -11.262887599
 2047-Nov-02 00:00 2469016.500000000  m  217.08890 -14.64959  -11.262418268
 2047-Nov-03 00:00 2469017.500000000  m  218.07084 -14.96485  -11.262171480
 2047-Nov-04 00:00 2469018.500000000  m  219.05618 -15.27607  -11.262150447
 2047-Nov-05 00:00 2469019.500000000  m  220.04495 -15.58314  -11.262358161
 2047-Nov-06 00:00 2469020.500000000  m  221.03720 -15.88595  -11.262797373
 2047-Nov-07 00:00 2469021.500000000  m  222.03297 -16.18440  -11.263470566
 2047-Nov-08 00:00 2469022.500000000  m  223.03228 -16.47836  -11.264379935
 2047-Nov-09 00:00 2469023.500000000  m  224.03515 -16.76772  -11.265527363
 2047-Nov-10 00:00 2469024.500000000  m  225.04161 -17.05238  -11.266914397
 2047-Nov-11 00:00 2469025.500000000  m  226.05168 -17.33222  -11.268542205
 2047-Nov-12 00:00 2469026.500000000  m  227.06535 -17.60712  -11.270411540
 2047-Nov-13 00:00 2469027.500000000     228.08264 -17.87697  -11.272522675
 2047-Nov-14 00:00 2469028.500000000     229.10356 -18.14166  -11.274875333
 2047-Nov-15 00:00 2469029.500000000     230.12808 -18.40107  -11.277468608
 2047-Nov-16 00:00 2469030.500000000     231.15621 -18.65509  -11.280300902
 2047-Nov-17 00:00 2469031.500000000     232.18790 -18.90362  -11.283369919
 2047-Nov-18 00:00 2469032.500000000     233.22311 -19.14654  -11.286672740
 2047-Nov-19 00:00 2469033.500000000     234.26180 -19.38375  -11.290205985
 2047-Nov-20 00:00 2469034.500000000     235.30389 -19.61515  -11.293966024
 2047-Nov-21 00:00 2469035.500000000     236.34933 -19.84062  -11.297949171
 2047-Nov-22 00:00 2469036.500000000     237.39804 -20.06006  -11.302151802
 2047-Nov-23 00:00 2469037.500000000     238.44998 -20.27338  -11.306570382
 2047-Nov-24 00:00 2469038.500000000     239.50509 -20.48046  -11.311201430
 2047-Nov-25 00:00 2469039.500000000     240.56332 -20.68122  -11.316041443
 2047-Nov-26 00:00 2469040.500000000  m  241.62463 -20.87557  -11.321086840
 2047-Nov-27 00:00 2469041.500000000  m  242.68897 -21.06341  -11.326333903
 2047-Nov-28 00:00 2469042.500000000  m  243.75627 -21.24467  -11.331778744
 2047-Nov-29 00:00 2469043.500000000  m  244.82649 -21.41925  -11.337417275
 2047-Nov-30 00:00 2469044.500000000  m  245.89956 -21.58708  -11.343245192
 2047-Dec-01 00:00 2469045.500000000  m  246.97541 -21.74808  -11.349257965
 2047-Dec-02 00:00 2469046.500000000  m  248.05397 -21.90217  -11.355450827
 2047-Dec-03 00:00 2469047.500000000  m  249.13516 -22.04927  -11.361818763
 2047-Dec-04 00:00 2469048.500000000  m  250.21890 -22.18930  -11.368356502
 2047-Dec-05 00:00 2469049.500000000  m  251.30511 -22.32221  -11.375058499
 2047-Dec-06 00:00 2469050.500000000  m  252.39369 -22.44791  -11.381918922
 2047-Dec-07 00:00 2469051.500000000  m  253.48455 -22.56634  -11.388931643
 2047-Dec-08 00:00 2469052.500000000  m  254.57759 -22.67742  -11.396090212
 2047-Dec-09 00:00 2469053.500000000  m  255.67270 -22.78111  -11.403387839
 2047-Dec-10 00:00 2469054.500000000  m  256.76978 -22.87733  -11.410817369
 2047-Dec-11 00:00 2469055.500000000     257.86872 -22.96604  -11.418371241
 2047-Dec-12 00:00 2469056.500000000     258.96940 -23.04717  -11.426041441
 2047-Dec-13 00:00 2469057.500000000     260.07171 -23.12068  -11.433819439
 2047-Dec-14 00:00 2469058.500000000     261.17552 -23.18654  -11.441696130
 2047-Dec-15 00:00 2469059.500000000     262.28068 -23.24470  -11.449661801
 2047-Dec-16 00:00 2469060.500000000     263.38703 -23.29513  -11.457706162
 2047-Dec-17 00:00 2469061.500000000     264.49442 -23.33781  -11.465818457
 2047-Dec-18 00:00 2469062.500000000     265.60265 -23.37272  -11.473987672
 2047-Dec-19 00:00 2469063.500000000     266.71157 -23.39982  -11.482202764
 2047-Dec-20 00:00 2469064.500000000     267.82099 -23.41911  -11.490452868
 2047-Dec-21 00:00 2469065.500000000     268.93077 -23.43057  -11.498727420
 2047-Dec-22 00:00 2469066.500000000     270.04074 -23.43419  -11.507016187
 2047-Dec-23 00:00 2469067.500000000     271.15077 -23.42996  -11.515309254
 2047-Dec-24 00:00 2469068.500000000     272.26072 -23.41790  -11.523596973
 2047-Dec-25 00:00 2469069.500000000  m  273.37045 -23.39799  -11.531869930
 2047-Dec-26 00:00 2469070.500000000  m  274.47983 -23.37026  -11.540118910
 2047-Dec-27 00:00 2469071.500000000  m  275.58872 -23.33472  -11.548334882
 2047-Dec-28 00:00 2469072.500000000  m  276.69699 -23.29138  -11.556508998
 2047-Dec-29 00:00 2469073.500000000  m  277.80451 -23.24027  -11.564632599
 2047-Dec-30 00:00 2469074.500000000  m  278.91116 -23.18141  -11.572697220
 2047-Dec-31 00:00 2469075.500000000  m  280.01680 -23.11482  -11.580694606
 2048-Jan-01 00:00 2469076.500000000  m  281.12131 -23.04055  -11.588616715
 2048-Jan-02 00:00 2469077.500000000  m  282.22457 -22.95862  -11.596455724
 2048-Jan-03 00:00 2469078.500000000  m  283.32647 -22.86907  -11.604204022
 2048-Jan-04 00:00 2469079.500000000  m  284.42688 -22.77194  -11.611854199
 2048-Jan-05 00:00 2469080.500000000  m  285.52570 -22.66726  -11.619399028
 2048-Jan-06 00:00 2469081.500000000  m  286.62282 -22.55510  -11.626831436
 2048-Jan-07 00:00 2469082.500000000  m  287.71815 -22.43548  -11.634144471
 2048-Jan-08 00:00 2469083.500000000  m  288.81159 -22.30847  -11.641331267
 2048-Jan-09 00:00 2469084.500000000     289.90303 -22.17413  -11.648384992
 2048-Jan-10 00:00 2469085.500000000     290.99238 -22.03251  -11.655298797
 2048-Jan-11 00:00 2469086.500000000     292.07955 -21.88369  -11.662065766
 2048-Jan-12 00:00 2469087.500000000     293.16443 -21.72774  -11.668678871
 2048-Jan-13 00:00 2469088.500000000     294.24690 -21.56475  -11.675130967
 2048-Jan-14 00:00 2469089.500000000     295.32685 -21.39479  -11.681414837
 2048-Jan-15 00:00 2469090.500000000     296.40417 -21.21795  -11.687523304
 2048-Jan-16 00:00 2469091.500000000     297.47873 -21.03433  -11.693449393
